EROS C3                 
1 54880U 22179A   26190.76072721  .00003326  00000+0  18122-3 0  9996
2 54880 139.3344 133.8516 0006398 139.2446 220.8841 15.11003145195748
