{"fetched_at":"2026-07-10T07:58:57.218Z","source":"https://celestrak.org/NORAD/elements/gp.php?NAME=EROS&FORMAT=JSON","constellation":"eros","records":[{"OBJECT_NAME":"EROS C3","OBJECT_ID":"2022-179A","EPOCH":"2026-07-09T18:15:26.830944","CLASSIFICATION_TYPE":"U","MEAN_MOTION":15.11003145,"ECCENTRICITY":0.0006398,"INCLINATION":139.3344,"RA_OF_ASC_NODE":133.8516,"ARG_OF_PERICENTER":139.2446,"MEAN_ANOMALY":220.8841,"EPHEMERIS_TYPE":0,"NORAD_CAT_ID":54880,"ELEMENT_SET_NO":999,"REV_AT_EPOCH":19574,"BSTAR":0.00018122,"MEAN_MOTION_DOT":0.00003326,"MEAN_MOTION_DDOT":0}]}
